{
  "type": "FeatureCollection",
  "features": [
    {
      "type": "Feature",
      "properties": {
        "norad_id": 35052,
        "name": "IRIDIUM 33 DEB",
        "group": "iridium-33-debris",
        "lat": 52.68395358535791,
        "lon": 22.35741969635272,
        "alt_km": 749.24333069559,
        "timestamp": "2025-12-19T14:48:36.633009+00:00",
        "meta_object_name": "IRIDIUM 33 DEB",
        "meta_object_id": "1997-051NY",
        "meta_epoch": "2025-12-19T01:12:36.651744",
        "meta_mean_motion": 14.38499195,
        "meta_eccentricity": 0.00134504,
        "meta_inclination": 86.3303,
        "meta_ra_of_asc_node": 17.7705,
        "meta_arg_of_pericenter": 67.3958,
        "meta_mean_anomaly": 292.8661,
        "meta_ephemeris_type": 0,
        "meta_classification_type": "U",
        "meta_norad_cat_id": 35052,
        "meta_element_set_no": 999,
        "meta_rev_at_epoch": 87366,
        "meta_bstar": 0.00014239762,
        "meta_mean_motion_dot": 4.55e-06,
        "meta_mean_motion_ddot": 0,
        "tle_line1": "1 35052U 97051NY  25353.05042421  .00000455  00000+0  14240-3 0  9990",
        "tle_line2": "2 35052  86.3303  17.7705 0013450  67.3958 292.8661 14.38499195873665"
      },
      "geometry": {
        "type": "Point",
        "coordinates": [
          22.35741969635272,
          52.68395358535791
        ]
      }
    },
    {
      "type": "Feature",
      "properties": {
        "norad_id": 35080,
        "name": "IRIDIUM 33 DEB",
        "group": "iridium-33-debris",
        "lat": -25.82111028536649,
        "lon": 47.24971333259677,
        "alt_km": 655.1350987192636,
        "timestamp": "2025-12-19T14:48:36.633019+00:00",
        "meta_object_name": "IRIDIUM 33 DEB",
        "meta_object_id": "1997-051PF",
        "meta_epoch": "2025-12-18T03:23:24.146880",
        "meta_mean_motion": 14.86677216,
        "meta_eccentricity": 0.00593996,
        "meta_inclination": 86.2085,
        "meta_ra_of_asc_node": 49.7944,
        "meta_arg_of_pericenter": 161.1545,
        "meta_mean_anomaly": 199.1899,
        "meta_ephemeris_type": 0,
        "meta_classification_type": "U",
        "meta_norad_cat_id": 35080,
        "meta_element_set_no": 999,
        "meta_rev_at_epoch": 69768,
        "meta_bstar": 0.004837816,
        "meta_mean_motion_dot": 0.0004462,
        "meta_mean_motion_ddot": 0,
        "tle_line1": "1 35080U 97051PF  25352.14125170  .00044620  00000+0  48378-2 0  9993",
        "tle_line2": "2 35080  86.2085  49.7944 0059399 161.1545 199.1899 14.86677216697682"
      },
      "geometry": {
        "type": "Point",
        "coordinates": [
          47.24971333259677,
          -25.82111028536649
        ]
      }
    },
    {
      "type": "Feature",
      "properties": {
        "norad_id": 35297,
        "name": "IRIDIUM 33 DEB",
        "group": "iridium-33-debris",
        "lat": 54.82660564177845,
        "lon": -125.32004330552773,
        "alt_km": 723.6647140672112,
        "timestamp": "2025-12-19T14:48:36.633029+00:00",
        "meta_object_name": "IRIDIUM 33 DEB",
        "meta_object_id": "1997-051PM",
        "meta_epoch": "2025-12-16T11:27:21.167712",
        "meta_mean_motion": 14.45174956,
        "meta_eccentricity": 0.00178431,
        "meta_inclination": 86.3863,
        "meta_ra_of_asc_node": 61.1645,
        "meta_arg_of_pericenter": 129.6186,
        "meta_mean_anomaly": 230.6595,
        "meta_ephemeris_type": 0,
        "meta_classification_type": "U",
        "meta_norad_cat_id": 35297,
        "meta_element_set_no": 999,
        "meta_rev_at_epoch": 70480,
        "meta_bstar": 0.00045011402,
        "meta_mean_motion_dot": 1.598e-05,
        "meta_mean_motion_ddot": 0,
        "tle_line1": "1 35297U 97051PM  25350.47732833  .00001598  00000+0  45011-3 0  9996",
        "tle_line2": "2 35297  86.3863  61.1645 0017843 129.6186 230.6595 14.45174956704806"
      },
      "geometry": {
        "type": "Point",
        "coordinates": [
          -125.32004330552773,
          54.82660564177845
        ]
      }
    },
    {
      "type": "Feature",
      "properties": {
        "norad_id": 35299,
        "name": "IRIDIUM 33 DEB",
        "group": "iridium-33-debris",
        "lat": -48.859306633090256,
        "lon": 25.931169297980567,
        "alt_km": 788.9197944914267,
        "timestamp": "2025-12-19T14:48:36.633039+00:00",
        "meta_object_name": "IRIDIUM 33 DEB",
        "meta_object_id": "1997-051PP",
        "meta_epoch": "2025-12-18T02:30:13.094208",
        "meta_mean_motion": 14.40886995,
        "meta_eccentricity": 0.00588566,
        "meta_inclination": 86.2881,
        "meta_ra_of_asc_node": 30.8512,
        "meta_arg_of_pericenter": 85.3219,
        "meta_mean_anomaly": 304.2144,
        "meta_ephemeris_type": 0,
        "meta_classification_type": "U",
        "meta_norad_cat_id": 35299,
        "meta_element_set_no": 999,
        "meta_rev_at_epoch": 86408,
        "meta_bstar": 0.00059608635,
        "meta_mean_motion_dot": 1.971e-05,
        "meta_mean_motion_ddot": 0,
        "tle_line1": "1 35299U 97051PP  25352.10431822  .00001971  00000+0  59609-3 0  9997",
        "tle_line2": "2 35299  86.2881  30.8512 0058856  85.3219 304.2144 14.40886995864080"
      },
      "geometry": {
        "type": "Point",
        "coordinates": [
          25.931169297980567,
          -48.859306633090256
        ]
      }
    },
    {
      "type": "Feature",
      "properties": {
        "norad_id": 35480,
        "name": "IRIDIUM 33 DEB",
        "group": "iridium-33-debris",
        "lat": -85.98494629092242,
        "lon": -43.249760012713,
        "alt_km": 745.0292977751669,
        "timestamp": "2025-12-19T14:48:36.633049+00:00",
        "meta_object_name": "IRIDIUM 33 DEB",
        "meta_object_id": "1997-051QA",
        "meta_epoch": "2025-12-15T08:30:57.118464",
        "meta_mean_motion": 14.49774703,
        "meta_eccentricity": 0.00160032,
        "meta_inclination": 86.3571,
        "meta_ra_of_asc_node": 23.7786,
        "meta_arg_of_pericenter": 97.0457,
        "meta_mean_anomaly": 263.2568,
        "meta_ephemeris_type": 0,
        "meta_classification_type": "U",
        "meta_norad_cat_id": 35480,
        "meta_element_set_no": 999,
        "meta_rev_at_epoch": 87069,
        "meta_bstar": 0.00045738518,
        "meta_mean_motion_dot": 1.785e-05,
        "meta_mean_motion_ddot": 0,
        "tle_line1": "1 35480U 97051QA  25349.35482776  .00001785  00000+0  45739-3 0  9998",
        "tle_line2": "2 35480  86.3571  23.7786 0016003  97.0457 263.2568 14.49774703870695"
      },
      "geometry": {
        "type": "Point",
        "coordinates": [
          -43.249760012713,
          -85.98494629092242
        ]
      }
    },
    {
      "type": "Feature",
      "properties": {
        "norad_id": 35484,
        "name": "IRIDIUM 33 DEB",
        "group": "iridium-33-debris",
        "lat": -34.98773460828426,
        "lon": 172.0802991884661,
        "alt_km": 581.6868886411039,
        "timestamp": "2025-12-19T14:48:36.633060+00:00",
        "meta_object_name": "IRIDIUM 33 DEB",
        "meta_object_id": "1997-051QE",
        "meta_epoch": "2025-12-13T07:15:48.307680",
        "meta_mean_motion": 14.98714194,
        "meta_eccentricity": 0.00237352,
        "meta_inclination": 86.3615,
        "meta_ra_of_asc_node": 352.4822,
        "meta_arg_of_pericenter": 123.3819,
        "meta_mean_anomaly": 236.9688,
        "meta_ephemeris_type": 0,
        "meta_classification_type": "U",
        "meta_norad_cat_id": 35484,
        "meta_element_set_no": 999,
        "meta_rev_at_epoch": 62024,
        "meta_bstar": 0.0048114888,
        "meta_mean_motion_dot": 0.00058609,
        "meta_mean_motion_ddot": 0,
        "tle_line1": "1 35484U 97051QE  25347.30264245  .00058609  00000+0  48115-2 0  9991",
        "tle_line2": "2 35484  86.3615 352.4822 0023735 123.3819 236.9688 14.98714194620242"
      },
      "geometry": {
        "type": "Point",
        "coordinates": [
          172.0802991884661,
          -34.98773460828426
        ]
      }
    },
    {
      "type": "Feature",
      "properties": {
        "norad_id": 35488,
        "name": "IRIDIUM 33 DEB",
        "group": "iridium-33-debris",
        "lat": -69.04055867961159,
        "lon": -71.95428490069412,
        "alt_km": 626.2536595437523,
        "timestamp": "2025-12-19T14:48:36.633070+00:00",
        "meta_object_name": "IRIDIUM 33 DEB",
        "meta_object_id": "1997-051QJ",
        "meta_epoch": "2025-12-18T06:44:16.731744",
        "meta_mean_motion": 14.83196659,
        "meta_eccentricity": 0.00291507,
        "meta_inclination": 86.3243,
        "meta_ra_of_asc_node": 298.3231,
        "meta_arg_of_pericenter": 24.8223,
        "meta_mean_anomaly": 335.4395,
        "meta_ephemeris_type": 0,
        "meta_classification_type": "U",
        "meta_norad_cat_id": 35488,
        "meta_element_set_no": 999,
        "meta_rev_at_epoch": 88348,
        "meta_bstar": 0.0014098178,
        "meta_mean_motion_dot": 0.00011627,
        "meta_mean_motion_ddot": 0,
        "tle_line1": "1 35488U 97051QJ  25352.28074921  .00011627  00000+0  14098-2 0  9990",
        "tle_line2": "2 35488  86.3243 298.3231 0029150  24.8223 335.4395 14.83196659883487"
      },
      "geometry": {
        "type": "Point",
        "coordinates": [
          -71.95428490069412,
          -69.04055867961159
        ]
      }
    }
  ]
}